{"type": "FeatureCollection", "features": [ {"type": "Feature", "properties": {"norad_id": 33676, "name": "FENGYUN 1C DEB", "group": "fengyun-1c-debris", "lat": 42.374375548043595, "lon": -170.15691532909906, "alt_km": 656.4732625020924, "timestamp": "2025-12-03T10:52:57.741122+00:00", "meta": {"OBJECT_NAME": "FENGYUN 1C DEB", "OBJECT_ID": "1999-025DFM", "EPOCH": "2025-12-02T20:52:58.094112", "MEAN_MOTION": 14.35546836, "ECCENTRICITY": 0.0205159, "INCLINATION": 99.097, "RA_OF_ASC_NODE": 0.8226, "ARG_OF_PERICENTER": 98.3399, "MEAN_ANOMALY": 264.1101, "EPHEMERIS_TYPE": 0, "CLASSIFICATION_TYPE": "U", "NORAD_CAT_ID": 33676, "ELEMENT_SET_NO": 999, "REV_AT_EPOCH": 65169, "BSTAR": 0.00017701, "MEAN_MOTION_DOT": 5.93e-06, "MEAN_MOTION_DDOT": 0}, "tle": {"line1": "1 33676U 99025DFM 25336.87011683  .00000593  00000+0  17701-3 0  9998", "line2": "2 33676  99.0970   0.8226 0205159  98.3399 264.1101 14.35546836651699"}}, "geometry": {"type": "Point", "coordinates": [-170.15691532909906, 42.374375548043595]}}, {"type": "Feature", "properties": {"norad_id": 33678, "name": "FENGYUN 1C DEB", "group": "fengyun-1c-debris", "lat": 48.81146768635078, "lon": 31.833223532389717, "alt_km": 848.8588012227292, "timestamp": "2025-12-03T10:52:57.741132+00:00", "meta": {"OBJECT_NAME": "FENGYUN 1C DEB", "OBJECT_ID": "1999-025DFP", "EPOCH": "2025-12-02T03:07:23.149920", "MEAN_MOTION": 14.47227945, "ECCENTRICITY": 0.02047899, "INCLINATION": 99.0446, "RA_OF_ASC_NODE": 40.9067, "ARG_OF_PERICENTER": 268.4727, "MEAN_ANOMALY": 89.2998, "EPHEMERIS_TYPE": 0, "CLASSIFICATION_TYPE": "U", "NORAD_CAT_ID": 33678, "ELEMENT_SET_NO": 999, "REV_AT_EPOCH": 94942, "BSTAR": 0.00079647457, "MEAN_MOTION_DOT": 3.725e-05, "MEAN_MOTION_DDOT": 0}, "tle": {"line1": "1 33678U 99025DFP 25336.13012905  .00003725  00000+0  79647-3 0  9994", "line2": "2 33678  99.0446  40.9067 0204789 268.4727  89.2998 14.47227945949421"}}, "geometry": {"type": "Point", "coordinates": [31.833223532389717, 48.81146768635078]}}, {"type": "Feature", "properties": {"norad_id": 33679, "name": "FENGYUN 1C DEB", "group": "fengyun-1c-debris", "lat": -71.38687145772703, "lon": -167.10094467096818, "alt_km": 541.1417846696104, "timestamp": "2025-12-03T10:52:57.741142+00:00", "meta": {"OBJECT_NAME": "FENGYUN 1C DEB", "OBJECT_ID": "1999-025DFQ", "EPOCH": "2025-11-29T03:24:33.677280", "MEAN_MOTION": 15.01717103, "ECCENTRICITY": 0.01512375, "INCLINATION": 99.3493, "RA_OF_ASC_NODE": 36.9971, "ARG_OF_PERICENTER": 343.5245, "MEAN_ANOMALY": 16.1087, "EPHEMERIS_TYPE": 0, "CLASSIFICATION_TYPE": "U", "NORAD_CAT_ID": 33679, "ELEMENT_SET_NO": 999, "REV_AT_EPOCH": 93919, "BSTAR": 0.0014003146, "MEAN_MOTION_DOT": 0.0002329, "MEAN_MOTION_DDOT": 0}, "tle": {"line1": "1 33679U 99025DFQ 25333.14205645  .00023290  00000+0  14003-2 0  9991", "line2": "2 33679  99.3493  36.9971 0151237 343.5245  16.1087 15.01717103939197"}}, "geometry": {"type": "Point", "coordinates": [-167.10094467096818, -71.38687145772703]}}, {"type": "Feature", "properties": {"norad_id": 33682, "name": "FENGYUN 1C DEB", "group": "fengyun-1c-debris", "lat": 65.96573620118194, "lon": 1.4726228081403359, "alt_km": 780.8137131995318, "timestamp": "2025-12-03T10:52:57.741152+00:00", "meta": {"OBJECT_NAME": "FENGYUN 1C DEB", "OBJECT_ID": "1999-025DFT", "EPOCH": "2025-12-03T02:09:00.429120", "MEAN_MOTION": 14.26572942, "ECCENTRICITY": 0.0029264, "INCLINATION": 99.4219, "RA_OF_ASC_NODE": 22.942, "ARG_OF_PERICENTER": 109.8341, "MEAN_ANOMALY": 250.5995, "EPHEMERIS_TYPE": 0, "CLASSIFICATION_TYPE": "U", "NORAD_CAT_ID": 33682, "ELEMENT_SET_NO": 999, "REV_AT_EPOCH": 91560, "BSTAR": 0.0019395, "MEAN_MOTION_DOT": 4.654e-05, "MEAN_MOTION_DDOT": 0}, "tle": {"line1": "1 33682U 99025DFT 25337.08958830  .00004654  00000+0  19395-2 0  9995", "line2": "2 33682  99.4219  22.9420 0029264 109.8341 250.5995 14.26572942915604"}}, "geometry": {"type": "Point", "coordinates": [1.4726228081403359, 65.96573620118194]}}, {"type": "Feature", "properties": {"norad_id": 33684, "name": "FENGYUN 1C DEB", "group": "fengyun-1c-debris", "lat": -55.890133832207844, "lon": 45.58989630206447, "alt_km": 572.721850143922, "timestamp": "2025-12-03T10:52:57.741162+00:00", "meta": {"OBJECT_NAME": "FENGYUN 1C DEB", "OBJECT_ID": "1999-025DFV", "EPOCH": "2025-12-03T02:58:39.247104", "MEAN_MOTION": 14.7281074, "ECCENTRICITY": 0.0289083, "INCLINATION": 99.0689, "RA_OF_ASC_NODE": 31.5817, "ARG_OF_PERICENTER": 10.474, "MEAN_ANOMALY": 350.2314, "EPHEMERIS_TYPE": 0, "CLASSIFICATION_TYPE": "U", "NORAD_CAT_ID": 33684, "ELEMENT_SET_NO": 999, "REV_AT_EPOCH": 92847, "BSTAR": 0.0010053, "MEAN_MOTION_DOT": 0.00012517, "MEAN_MOTION_DDOT": 0}, "tle": {"line1": "1 33684U 99025DFV 25337.12406536  .00012517  00000+0  10053-2 0  9992", "line2": "2 33684  99.0689  31.5817 0289083  10.4740 350.2314 14.72810740928470"}}, "geometry": {"type": "Point", "coordinates": [45.58989630206447, -55.890133832207844]}}, {"type": "Feature", "properties": {"norad_id": 33687, "name": "FENGYUN 1C DEB", "group": "fengyun-1c-debris", "lat": 29.811013404552963, "lon": -23.767637739440275, "alt_km": 435.9718621589782, "timestamp": "2025-12-03T10:52:57.741173+00:00", "meta": {"OBJECT_NAME": "FENGYUN 1C DEB", "OBJECT_ID": "1999-025DFY", "EPOCH": "2025-12-02T06:16:02.710272", "MEAN_MOTION": 15.17405521, "ECCENTRICITY": 0.0119547, "INCLINATION": 98.9972, "RA_OF_ASC_NODE": 340.0261, "ARG_OF_PERICENTER": 11.3354, "MEAN_ANOMALY": 349.0524, "EPHEMERIS_TYPE": 0, "CLASSIFICATION_TYPE": "U", "NORAD_CAT_ID": 33687, "ELEMENT_SET_NO": 999, "REV_AT_EPOCH": 71349, "BSTAR": 0.0018833, "MEAN_MOTION_DOT": 0.00045488, "MEAN_MOTION_DDOT": 0}, "tle": {"line1": "1 33687U 99025DFY 25336.26114248  .00045488  00000+0  18833-2 0  9992", "line2": "2 33687  98.9972 340.0261 0119547  11.3354 349.0524 15.17405521713495"}}, "geometry": {"type": "Point", "coordinates": [-23.767637739440275, 29.811013404552963]}}, {"type": "Feature", "properties": {"norad_id": 33688, "name": "FENGYUN 1C DEB", "group": "fengyun-1c-debris", "lat": 77.76865884255248, "lon": 28.43913572678378, "alt_km": 767.2498234013492, "timestamp": "2025-12-03T10:52:57.741183+00:00", "meta": {"OBJECT_NAME": "FENGYUN 1C DEB", "OBJECT_ID": "1999-025DFZ", "EPOCH": "2025-12-02T06:15:25.398432", "MEAN_MOTION": 14.45255894, "ECCENTRICITY": 0.0053128, "INCLINATION": 99.3492, "RA_OF_ASC_NODE": 76.5882, "ARG_OF_PERICENTER": 293.1663, "MEAN_ANOMALY": 66.3934, "EPHEMERIS_TYPE": 0, "CLASSIFICATION_TYPE": "U", "NORAD_CAT_ID": 33688, "ELEMENT_SET_NO": 999, "REV_AT_EPOCH": 91330, "BSTAR": 0.0032471, "MEAN_MOTION_DOT": 0.00011555, "MEAN_MOTION_DDOT": 0}, "tle": {"line1": "1 33688U 99025DFZ 25336.26071063  .00011555  00000+0  32471-2 0  9992", "line2": "2 33688  99.3492  76.5882 0053128 293.1663  66.3934 14.45255894913305"}}, "geometry": {"type": "Point", "coordinates": [28.43913572678378, 77.76865884255248]}}, {"type": "Feature", "properties": {"norad_id": 33689, "name": "FENGYUN 1C DEB", "group": "fengyun-1c-debris", "lat": 50.25686832260448, "lon": 175.31555503931435, "alt_km": 715.1924076930436, "timestamp": "2025-12-03T10:52:57.741193+00:00", "meta": {"OBJECT_NAME": "FENGYUN 1C DEB", "OBJECT_ID": "1999-025DGA", "EPOCH": "2025-11-29T19:02:12.805728", "MEAN_MOTION": 14.44995922, "ECCENTRICITY": 0.00478162, "INCLINATION": 99.5667, "RA_OF_ASC_NODE": 339.4956, "ARG_OF_PERICENTER": 189.1023, "MEAN_ANOMALY": 349.9963, "EPHEMERIS_TYPE": 0, "CLASSIFICATION_TYPE": "U", "NORAD_CAT_ID": 33689, "ELEMENT_SET_NO": 999, "REV_AT_EPOCH": 69343, "BSTAR": 0.0010237814, "MEAN_MOTION_DOT": 3.568e-05, "MEAN_MOTION_DDOT": 0}, "tle": {"line1": "1 33689U 99025DGA 25333.79320377  .00003568  00000+0  10238-2 0  9995", "line2": "2 33689  99.5667 339.4956 0047816 189.1023 349.9963 14.44995922693439"}}, "geometry": {"type": "Point", "coordinates": [175.31555503931435, 50.25686832260448]}}, {"type": "Feature", "properties": {"norad_id": 33690, "name": "FENGYUN 1C DEB", "group": "fengyun-1c-debris", "lat": -77.0783938100834, "lon": 116.93688854230405, "alt_km": 749.8240099188279, "timestamp": "2025-12-03T10:52:57.741203+00:00", "meta": {"OBJECT_NAME": "FENGYUN 1C DEB", "OBJECT_ID": "1999-025DGB", "EPOCH": "2025-12-02T05:28:01.354944", "MEAN_MOTION": 14.51156207, "ECCENTRICITY": 0.0031229, "INCLINATION": 98.6122, "RA_OF_ASC_NODE": 74.3389, "ARG_OF_PERICENTER": 82.6106, "MEAN_ANOMALY": 277.8635, "EPHEMERIS_TYPE": 0, "CLASSIFICATION_TYPE": "U", "NORAD_CAT_ID": 33690, "ELEMENT_SET_NO": 999, "REV_AT_EPOCH": 93067, "BSTAR": 0.0026098, "MEAN_MOTION_DOT": 0.00010388, "MEAN_MOTION_DDOT": 0}, "tle": {"line1": "1 33690U 99025DGB 25336.22779346  .00010388  00000+0  26098-2 0  9991", "line2": "2 33690  98.6122  74.3389 0031229  82.6106 277.8635 14.51156207930670"}}, "geometry": {"type": "Point", "coordinates": [116.93688854230405, -77.0783938100834]}}, {"type": "Feature", "properties": {"norad_id": 33693, "name": "FENGYUN 1C DEB", "group": "fengyun-1c-debris", "lat": -66.08874166079333, "lon": 177.01895543638574, "alt_km": 1001.2207232481906, "timestamp": "2025-12-03T10:52:57.741213+00:00", "meta": {"OBJECT_NAME": "FENGYUN 1C DEB", "OBJECT_ID": "1999-025DGE", "EPOCH": "2025-12-02T10:41:23.670240", "MEAN_MOTION": 13.71264167, "ECCENTRICITY": 0.02264355, "INCLINATION": 99.2155, "RA_OF_ASC_NODE": 154.5726, "ARG_OF_PERICENTER": 25.8036, "MEAN_ANOMALY": 335.4204, "EPHEMERIS_TYPE": 0, "CLASSIFICATION_TYPE": "U", "NORAD_CAT_ID": 33693, "ELEMENT_SET_NO": 999, "REV_AT_EPOCH": 88090, "BSTAR": 0.001988298, "MEAN_MOTION_DOT": 2.098e-05, "MEAN_MOTION_DDOT": 0}, "tle": {"line1": "1 33693U 99025DGE 25336.44541285  .00002098  00000+0  19883-2 0  9990", "line2": "2 33693  99.2155 154.5726 0226435  25.8036 335.4204 13.71264167880907"}}, "geometry": {"type": "Point", "coordinates": [177.01895543638574, -66.08874166079333]}}]}